start=new Date('2023-05-12T00:00:00.000Z').valueOf();
sats=[{"INCLINATION":"53.2157","COUNTRY_CODE":"US","OBJECT_TYPE":"PAYLOAD","EPHEMERIS_TYPE":"0","RA_OF_ASC_NODE":"146.2011","SEMIMAJOR_AXIS":"6917.888","RCS_SIZE":"LARGE","MEAN_ANOMALY":"264.4717","DECAY_DATE":null,"FILE":"3905576","GP_ID":"231638131","REV_AT_EPOCH":"5998","OBJECT_ID":"2022-045AW","ECCENTRICITY":"0.00012200","TLE_LINE1":"1 52375U 22045AW  23131.74216986  .00000574  00000-0  54136-4 0  9997","OBJECT_NAME":"STARLINK-3785","ARG_OF_PERICENTER":"95.6414","TIME_SYSTEM":"UTC","CENTER_NAME":"EARTH","MEAN_ELEMENT_THEORY":"SGP4","PERIOD":"95.438","LAUNCH_DATE":"2022-04-29","MEAN_MOTION_DDOT":"0.0000000000000","PERIAPSIS":"538.909","SITE":"AFETR","CLASSIFICATION_TYPE":"U","NORAD_CAT_ID":"52375","ELEMENT_SET_NO":"999","MEAN_MOTION_DOT":"0.00000574","BSTAR":"0.00005413600000","EPOCH":"2023-05-11T17:48:43.475904","TLE_LINE2":"2 52375  53.2157 146.2011 0001220  95.6414 264.4717 15.08837395 59987","MEAN_MOTION":"15.08837395","REF_FRAME":"TEME","APOAPSIS":"540.597"},{"GP_ID":"231636880","FILE":"3905576","DECAY_DATE":null,"MEAN_ANOMALY":"271.0705","RCS_SIZE":"LARGE","RA_OF_ASC_NODE":"146.2521","EPHEMERIS_TYPE":"0","SEMIMAJOR_AXIS":"6917.887","OBJECT_TYPE":"PAYLOAD","COUNTRY_CODE":"US","INCLINATION":"53.2156","OBJECT_ID":"2022-045AX","ECCENTRICITY":"0.00012020","REV_AT_EPOCH":"5998","ARG_OF_PERICENTER":"89.0425","OBJECT_NAME":"STARLINK-3767","TLE_LINE1":"1 52376U 22045AX  23131.73112918  .00000361  00000-0  40775-4 0  9995","CENTER_NAME":"EARTH","TIME_SYSTEM":"UTC","CLASSIFICATION_TYPE":"U","SITE":"AFETR","PERIAPSIS":"538.921","MEAN_MOTION_DDOT":"0.0000000000000","PERIOD":"95.438","LAUNCH_DATE":"2022-04-29","MEAN_ELEMENT_THEORY":"SGP4","ELEMENT_SET_NO":"999","NORAD_CAT_ID":"52376","EPOCH":"2023-05-11T17:32:49.561152","BSTAR":"0.00004077500000","MEAN_MOTION_DOT":"0.00000361","REF_FRAME":"TEME","APOAPSIS":"540.584","TLE_LINE2":"2 52376  53.2156 146.2521 0001202  89.0425 271.0705 15.08837751 59989","MEAN_MOTION":"15.08837751"},{"REF_FRAME":"TEME","APOAPSIS":"540.374","MEAN_MOTION":"15.08839081","TLE_LINE2":"2 52377  53.2157 146.3707 0000904  98.3197 261.7898 15.08839081 59971","EPOCH":"2023-05-11T18:04:39.539424","MEAN_MOTION_DOT":"0.00000573","BSTAR":"0.00005405500000","ELEMENT_SET_NO":"999","NORAD_CAT_ID":"52377","MEAN_MOTION_DDOT":"0.0000000000000","PERIAPSIS":"539.123","SITE":"AFETR","CLASSIFICATION_TYPE":"U","MEAN_ELEMENT_THEORY":"SGP4","PERIOD":"95.438","LAUNCH_DATE":"2022-04-29","CENTER_NAME":"EARTH","TIME_SYSTEM":"UTC","OBJECT_NAME":"STARLINK-3805","ARG_OF_PERICENTER":"98.3197","TLE_LINE1":"1 52377U 22045AY  23131.75323541  .00000573  00000-0  54055-4 0  9995","REV_AT_EPOCH":"5997","ECCENTRICITY":"0.00009040","OBJECT_ID":"2022-045AY","RCS_SIZE":"LARGE","MEAN_ANOMALY":"261.7898","DECAY_DATE":null,"FILE":"3905576","GP_ID":"231637129","INCLINATION":"53.2157","COUNTRY_CODE":"US","OBJECT_TYPE":"PAYLOAD","EPHEMERIS_TYPE":"0","RA_OF_ASC_NODE":"146.3707","SEMIMAJOR_AXIS":"6917.883"},{"ECCENTRICITY":"0.00012140","OBJECT_ID":"2022-045AZ","REV_AT_EPOCH":"5992","GP_ID":"231603072","FILE":"3905210","DECAY_DATE":null,"MEAN_ANOMALY":"266.3791","RCS_SIZE":"LARGE","RA_OF_ASC_NODE":"148.0677","SEMIMAJOR_AXIS":"6917.866","EPHEMERIS_TYPE":"0","OBJECT_TYPE":"PAYLOAD","COUNTRY_CODE":"US","INCLINATION":"53.2154","CENTER_NAME":"EARTH","TIME_SYSTEM":"UTC","ARG_OF_PERICENTER":"93.7340","OBJECT_NAME":"STARLINK-3806","TLE_LINE1":"1 52378U 22045AZ  23131.32632565 -.00000037  00000-0  15760-4 0  9994","ELEMENT_SET_NO":"999","NORAD_CAT_ID":"52378","CLASSIFICATION_TYPE":"U","SITE":"AFETR","PERIAPSIS":"538.891","MEAN_MOTION_DDOT":"0.0000000000000","LAUNCH_DATE":"2022-04-29","PERIOD":"95.437","MEAN_ELEMENT_THEORY":"SGP4","REF_FRAME":"TEME","APOAPSIS":"540.571","TLE_LINE2":"2 52378  53.2154 148.0677 0001214  93.7340 266.3791 15.08844806 59927","MEAN_MOTION":"15.08844806","EPOCH":"2023-05-11T07:49:54.536160","BSTAR":"0.00001576000000","MEAN_MOTION_DOT":"-0.00000037"},{"APOAPSIS":"540.640","REF_FRAME":"TEME","TLE_LINE2":"2 52379  53.2157 148.0487 0001285  87.2298 272.8841 15.08838010 59926","MEAN_MOTION":"15.08838010","EPOCH":"2023-05-11T07:55:12.622080","BSTAR":"0.00002104800000","MEAN_MOTION_DOT":"0.00000047","ELEMENT_SET_NO":"999","NORAD_CAT_ID":"52379","SITE":"AFETR","PERIAPSIS":"538.863","MEAN_MOTION_DDOT":"0.0000000000000","CLASSIFICATION_TYPE":"U","MEAN_ELEMENT_THEORY":"SGP4","LAUNCH_DATE":"2022-04-29","PERIOD":"95.438","CENTER_NAME":"EARTH","TIME_SYSTEM":"UTC","OBJECT_NAME":"STARLINK-3800","ARG_OF_PERICENTER":"87.2298","TLE_LINE1":"1 52379U 22045BA  23131.33000720  .00000047  00000-0  21048-4 0  9994","REV_AT_EPOCH":"5992","OBJECT_ID":"2022-045BA","ECCENTRICITY":"0.00012850","DECAY_DATE":null,"MEAN_ANOMALY":"272.8841","RCS_SIZE":"LARGE","GP_ID":"231603322","FILE":"3905210","COUNTRY_CODE":"US","INCLINATION":"53.2157","SEMIMAJOR_AXIS":"6917.886","EPHEMERIS_TYPE":"0","RA_OF_ASC_NODE":"148.0487","OBJECT_TYPE":"PAYLOAD"},{"APOAPSIS":"540.600","REF_FRAME":"TEME","TLE_LINE2":"2 52380  53.2155 136.3914 0001225  88.5488 271.5645 15.08837539 60116","MEAN_MOTION":"15.08837539","EPOCH":"2023-05-11T16:57:03.589920","BSTAR":"0.00001653700000","MEAN_MOTION_DOT":"-0.00000025","ELEMENT_SET_NO":"999","NORAD_CAT_ID":"52380","CLASSIFICATION_TYPE":"U","PERIAPSIS":"538.905","SITE":"AFETR","MEAN_MOTION_DDOT":"0.0000000000000","LAUNCH_DATE":"2022-04-29","PERIOD":"95.438","MEAN_ELEMENT_THEORY":"SGP4","CENTER_NAME":"EARTH","TIME_SYSTEM":"UTC","ARG_OF_PERICENTER":"88.5488","OBJECT_NAME":"STARLINK-3793","TLE_LINE1":"1 52380U 22045BB  23131.70629155 -.00000025  00000-0  16537-4 0  9990","OBJECT_ID":"2022-045BB","ECCENTRICITY":"0.00012250","REV_AT_EPOCH":"6011","GP_ID":"231637379","FILE":"3905576","DECAY_DATE":null,"MEAN_ANOMALY":"271.5645","RCS_SIZE":"LARGE","EPHEMERIS_TYPE":"0","SEMIMAJOR_AXIS":"6917.888","RA_OF_ASC_NODE":"136.3914","OBJECT_TYPE":"PAYLOAD","COUNTRY_CODE":"US","INCLINATION":"53.2155"},{"EPOCH":"2023-05-11T07:44:36.850272","BSTAR":"0.00003849800000","MEAN_MOTION_DOT":"0.00000325","APOAPSIS":"540.574","REF_FRAME":"TEME","TLE_LINE2":"2 52381  53.2159 148.0812 0001251  95.6450 264.4685 15.08852161 59925","MEAN_MOTION":"15.08852161","CLASSIFICATION_TYPE":"U","SITE":"AFETR","PERIAPSIS":"538.843","MEAN_MOTION_DDOT":"0.0000000000000","LAUNCH_DATE":"2022-04-29","PERIOD":"95.437","MEAN_ELEMENT_THEORY":"SGP4","ELEMENT_SET_NO":"999","NORAD_CAT_ID":"52381","ARG_OF_PERICENTER":"95.6450","OBJECT_NAME":"STARLINK-3803","TLE_LINE1":"1 52381U 22045BC  23131.32264873  .00000325  00000-0  38498-4 0  9993","CENTER_NAME":"EARTH","TIME_SYSTEM":"UTC","GP_ID":"231604322","FILE":"3905210","DECAY_DATE":null,"MEAN_ANOMALY":"264.4685","RCS_SIZE":"LARGE","RA_OF_ASC_NODE":"148.0812","SEMIMAJOR_AXIS":"6917.843","EPHEMERIS_TYPE":"0","OBJECT_TYPE":"PAYLOAD","COUNTRY_CODE":"US","INCLINATION":"53.2159","OBJECT_ID":"2022-045BC","ECCENTRICITY":"0.00012510","REV_AT_EPOCH":"5992"},{"TIME_SYSTEM":"UTC","CENTER_NAME":"EARTH","TLE_LINE1":"1 52382U 22045BD  23131.31896608  .00000256  00000-0  34184-4 0  9991","OBJECT_NAME":"STARLINK-3799","ARG_OF_PERICENTER":"92.7107","REV_AT_EPOCH":"5992","ECCENTRICITY":"0.00013530","OBJECT_ID":"2022-045BD","INCLINATION":"53.2162","COUNTRY_CODE":"US","OBJECT_TYPE":"PAYLOAD","SEMIMAJOR_AXIS":"6917.868","RA_OF_ASC_NODE":"148.1085","EPHEMERIS_TYPE":"0","RCS_SIZE":"LARGE","DECAY_DATE":null,"MEAN_ANOMALY":"267.4040","FILE":"3905268","GP_ID":"231608356","TLE_LINE2":"2 52382  53.2162 148.1085 0001353  92.7107 267.4040 15.08844077 59928","MEAN_MOTION":"15.08844077","APOAPSIS":"540.669","REF_FRAME":"TEME","MEAN_MOTION_DOT":"0.00000256","BSTAR":"0.00003418400000","EPOCH":"2023-05-11T07:39:18.669312","NORAD_CAT_ID":"52382","ELEMENT_SET_NO":"999","MEAN_ELEMENT_THEORY":"SGP4","PERIOD":"95.437","LAUNCH_DATE":"2022-04-29","MEAN_MOTION_DDOT":"0.0000000000000","PERIAPSIS":"538.797","SITE":"AFETR","CLASSIFICATION_TYPE":"U"},{"PERIOD":"95.437","LAUNCH_DATE":"2022-04-29","MEAN_ELEMENT_THEORY":"SGP4","CLASSIFICATION_TYPE":"U","MEAN_MOTION_DDOT":"0.0000000000000","PERIAPSIS":"539.018","SITE":"AFETR","NORAD_CAT_ID":"52383","ELEMENT_SET_NO":"999","MEAN_MOTION_DOT":"0.00000020","BSTAR":"0.00001931300000","EPOCH":"2023-05-11T08:12:26.217504","TLE_LINE2":"2 52383  53.2158 138.0261 0001030  82.8832 277.2277 15.08844965 60069","MEAN_MOTION":"15.08844965","REF_FRAME":"TEME","APOAPSIS":"540.443","OBJECT_TYPE":"PAYLOAD","RA_OF_ASC_NODE":"138.0261","EPHEMERIS_TYPE":"0","SEMIMAJOR_AXIS":"6917.865","INCLINATION":"53.2158","COUNTRY_CODE":"US","FILE":"3905270","GP_ID":"231608391","RCS_SIZE":"LARGE","DECAY_DATE":null,"MEAN_ANOMALY":"277.2277","OBJECT_ID":"2022-045BE","ECCENTRICITY":"0.00010300","REV_AT_EPOCH":"6006","TLE_LINE1":"1 52383U 22045BE  23131.34197011  .00000020  00000-0  19313-4 0  9993","ARG_OF_PERICENTER":"82.8832","OBJECT_NAME":"STARLINK-3811","TIME_SYSTEM":"UTC","CENTER_NAME":"EARTH"},{"CENTER_NAME":"EARTH","TIME_SYSTEM":"UTC","OBJECT_NAME":"STARLINK-3870","ARG_OF_PERICENTER":"99.1708","TLE_LINE1":"1 52451U 22049A   23131.03560539  .00011935  00000-0  76667-3 0  9999","REV_AT_EPOCH":"5606","OBJECT_ID":"2022-049A","ECCENTRICITY":"0.00007640","DECAY_DATE":null,"MEAN_ANOMALY":"260.9371","RCS_SIZE":"LARGE","GP_ID":"231603829","FILE":"3905210","COUNTRY_CODE":"US","INCLINATION":"53.2168","EPHEMERIS_TYPE":"0","RA_OF_ASC_NODE":"29.3720","SEMIMAJOR_AXIS":"6917.879","OBJECT_TYPE":"PAYLOAD","REF_FRAME":"TEME","APOAPSIS":"540.273","MEAN_MOTION":"15.08840380","TLE_LINE2":"2 52451  53.2168  29.3720 0000764  99.1708 260.9371 15.08840380 56060","EPOCH":"2023-05-11T00:51:16.305696","BSTAR":"0.00076667000000","MEAN_MOTION_DOT":"0.00011935","ELEMENT_SET_NO":"999","NORAD_CAT_ID":"52451","SITE":"AFETR","PERIAPSIS":"539.216","MEAN_MOTION_DDOT":"0.0000000000000","CLASSIFICATION_TYPE":"U","MEAN_ELEMENT_THEORY":"SGP4","LAUNCH_DATE":"2022-05-06","PERIOD":"95.438"}];
